start=new Date('2021-10-13T00:00:00.000Z').valueOf();
sats=[{"MEAN_MOTION_DDOT":"0.0000000000000","ECCENTRICITY":"0.00036570","PERIOD":"91.732","RCS_SIZE":"LARGE","FILE":"3159226","SEMIMAJOR_AXIS":"6737.626","MEAN_MOTION":"15.69793249","APOAPSIS":"361.954","CLASSIFICATION_TYPE":"U","TLE_LINE2":"2 49178  70.0013  45.8565 0003657 281.9926  97.1876 15.69793249  5786","PERIAPSIS":"357.027","REF_FRAME":"TEME","GP_ID":"186992139","COUNTRY_CODE":"US","DECAY_DATE":null,"LAUNCH_DATE":"2021-09-14","OBJECT_NAME":"STARLINK-3086","ELEMENT_SET_NO":"999","OBJECT_TYPE":"PAYLOAD","NORAD_CAT_ID":"49178","REV_AT_EPOCH":"578","MEAN_ANOMALY":"97.1876","SITE":"AFWTR","ARG_OF_PERICENTER":"281.9926","OBJECT_ID":"2021-082BA","INCLINATION":"70.0013","CENTER_NAME":"EARTH","TLE_LINE1":"1 49178U 21082BA  21285.91668981 -.00019004  00000-0 -15748-3 0  9992","MEAN_MOTION_DOT":"-0.00019004","EPHEMERIS_TYPE":"0","MEAN_ELEMENT_THEORY":"SGP4","RA_OF_ASC_NODE":"45.8565","TIME_SYSTEM":"UTC","EPOCH":"2021-10-12T22:00:01.999584","BSTAR":"-0.00015748000000"},{"EPHEMERIS_TYPE":"0","TLE_LINE1":"1 49179U 21082BB  21285.91668981 -.00003471  00000-0 -27270-4 0  9998","MEAN_MOTION_DOT":"-0.00003471","RA_OF_ASC_NODE":"45.8579","MEAN_ELEMENT_THEORY":"SGP4","TIME_SYSTEM":"UTC","BSTAR":"-0.00002727000000","EPOCH":"2021-10-12T22:00:01.999584","ARG_OF_PERICENTER":"283.5179","INCLINATION":"70.0019","OBJECT_ID":"2021-082BB","CENTER_NAME":"EARTH","REV_AT_EPOCH":"462","MEAN_ANOMALY":"93.5723","SITE":"AFWTR","OBJECT_TYPE":"PAYLOAD","NORAD_CAT_ID":"49179","LAUNCH_DATE":"2021-09-14","DECAY_DATE":null,"OBJECT_NAME":"STARLINK-3043","ELEMENT_SET_NO":"999","CLASSIFICATION_TYPE":"U","TLE_LINE2":"2 49179  70.0019  45.8579 0003679 283.5179  93.5723 15.69779382  4625","PERIAPSIS":"357.051","GP_ID":"186991702","REF_FRAME":"TEME","COUNTRY_CODE":"US","MEAN_MOTION":"15.69779382","SEMIMAJOR_AXIS":"6737.665","APOAPSIS":"362.009","MEAN_MOTION_DDOT":"0.0000000000000","ECCENTRICITY":"0.00036790","RCS_SIZE":"LARGE","PERIOD":"91.733","FILE":"3159237"},{"NORAD_CAT_ID":"49180","OBJECT_TYPE":"PAYLOAD","SITE":"AFWTR","MEAN_ANOMALY":"99.3325","REV_AT_EPOCH":"579","ARG_OF_PERICENTER":"284.1948","CENTER_NAME":"EARTH","OBJECT_ID":"2021-082BC","INCLINATION":"70.0012","MEAN_ELEMENT_THEORY":"SGP4","RA_OF_ASC_NODE":"45.8506","TLE_LINE1":"1 49180U 21082BC  21285.91668981 -.00082714  00000-0 -69669-3 0  9994","MEAN_MOTION_DOT":"-0.00082714","EPHEMERIS_TYPE":"0","BSTAR":"-0.00069669000000","EPOCH":"2021-10-12T22:00:01.999584","TIME_SYSTEM":"UTC","PERIOD":"91.732","RCS_SIZE":"LARGE","ECCENTRICITY":"0.00035990","MEAN_MOTION_DDOT":"0.0000000000000","FILE":"3159237","SEMIMAJOR_AXIS":"6737.632","MEAN_MOTION":"15.69791153","APOAPSIS":"361.921","REF_FRAME":"TEME","GP_ID":"186991700","TLE_LINE2":"2 49180  70.0012  45.8506 0003599 284.1948  99.3325 15.69791153  5793","PERIAPSIS":"357.072","CLASSIFICATION_TYPE":"U","COUNTRY_CODE":"US","OBJECT_NAME":"STARLINK-3050","DECAY_DATE":null,"LAUNCH_DATE":"2021-09-14","ELEMENT_SET_NO":"999"},{"OBJECT_NAME":"STARLINK-3059","DECAY_DATE":null,"LAUNCH_DATE":"2021-09-14","ELEMENT_SET_NO":"999","GP_ID":"186991698","REF_FRAME":"TEME","CLASSIFICATION_TYPE":"U","TLE_LINE2":"2 49181  70.0001  45.8476 0003754 286.9654  98.6251 15.69775816  5793","PERIAPSIS":"357.011","COUNTRY_CODE":"US","SEMIMAJOR_AXIS":"6737.675","MEAN_MOTION":"15.69775816","APOAPSIS":"362.070","PERIOD":"91.733","RCS_SIZE":"LARGE","MEAN_MOTION_DDOT":"0.0000000000000","ECCENTRICITY":"0.00037540","FILE":"3159237","MEAN_ELEMENT_THEORY":"SGP4","RA_OF_ASC_NODE":"45.8476","MEAN_MOTION_DOT":"-0.00003556","TLE_LINE1":"1 49181U 21082BD  21285.91668981 -.00003556  00000-0 -27984-4 0  9997","EPHEMERIS_TYPE":"0","BSTAR":"-0.00002798400000","EPOCH":"2021-10-12T22:00:01.999584","TIME_SYSTEM":"UTC","ARG_OF_PERICENTER":"286.9654","CENTER_NAME":"EARTH","OBJECT_ID":"2021-082BD","INCLINATION":"70.0001","SITE":"AFWTR","MEAN_ANOMALY":"98.6251","REV_AT_EPOCH":"579","NORAD_CAT_ID":"49181","OBJECT_TYPE":"PAYLOAD"}];
